{"fetched_at":"2026-07-12T05:53:09.106Z","source":"https://celestrak.org/NORAD/elements/gp.php?NAME=PLEIADES&FORMAT=JSON","constellation":"pleiades","records":[{"OBJECT_NAME":"PLEIADES 1A","OBJECT_ID":"2011-076F","EPOCH":"2026-07-11T20:04:59.259936","CLASSIFICATION_TYPE":"U","MEAN_MOTION":14.58545638,"ECCENTRICITY":0.0001723,"INCLINATION":98.1971,"RA_OF_ASC_NODE":267.6074,"ARG_OF_PERICENTER":80.921,"MEAN_ANOMALY":56.2126,"EPHEMERIS_TYPE":0,"NORAD_CAT_ID":38012,"ELEMENT_SET_NO":999,"REV_AT_EPOCH":77558,"BSTAR":0.000033032,"MEAN_MOTION_DOT":0.00000108,"MEAN_MOTION_DDOT":0},{"OBJECT_NAME":"PLEIADES 1B","OBJECT_ID":"2012-068A","EPOCH":"2026-07-11T20:16:16.023360","CLASSIFICATION_TYPE":"U","MEAN_MOTION":14.5853273,"ECCENTRICITY":0.0001633,"INCLINATION":98.1942,"RA_OF_ASC_NODE":267.5559,"ARG_OF_PERICENTER":79.2063,"MEAN_ANOMALY":280.932,"EPHEMERIS_TYPE":0,"NORAD_CAT_ID":39019,"ELEMENT_SET_NO":999,"REV_AT_EPOCH":72444,"BSTAR":0.0000074971,"MEAN_MOTION_DOT":-1.1e-7,"MEAN_MOTION_DDOT":0}]}
